STARLINK-35532          
1 66091U 25236F   26068.52066676  .00023933  00000+0  81744-3 0  9996
2 66091  53.1580 104.3062 0001198  93.3164 266.7974 15.30205397 22928
KUIPER-00222            
1 67782U 26030U   26068.67636257  .00055223  00000+0  17317-2 0  9992
2 67782  51.8817 219.7147 0012800  40.1845 320.0084 15.32445377  5087
